[{"OBJECT_NAME":"FENGYUN 1C DEB","OBJECT_ID":"1999-025SP","EPOCH":"2026-02-01T20:55:12.337248","MEAN_MOTION":14.1345934,"ECCENTRICITY":0.00193854,"INCLINATION":98.6909,"RA_OF_ASC_NODE":55.4475,"ARG_OF_PERICENTER":43.1154,"MEAN_ANOMALY":79.7234,"EPHEMERIS_TYPE":0,"CLASSIFICATION_TYPE":"U","NORAD_CAT_ID":30134,"ELEMENT_SET_NO":999,"REV_AT_EPOCH":97968,"BSTAR":0.00047701527,"MEAN_MOTION_DOT":8.56e-6,"MEAN_MOTION_DDOT":0},{"OBJECT_NAME":"FENGYUN 1C DEB","OBJECT_ID":"1999-025SR","EPOCH":"2026-02-01T15:36:38.353824","MEAN_MOTION":13.95406614,"ECCENTRICITY":0.01277168,"INCLINATION":98.5546,"RA_OF_ASC_NODE":286.8839,"ARG_OF_PERICENTER":288.49,"MEAN_ANOMALY":99.8421,"EPHEMERIS_TYPE":0,"CLASSIFICATION_TYPE":"U","NORAD_CAT_ID":30136,"ELEMENT_SET_NO":999,"REV_AT_EPOCH":96801,"BSTAR":0.0004132946,"MEAN_MOTION_DOT":5.59e-6,"MEAN_MOTION_DDOT":0},{"OBJECT_NAME":"FENGYUN 1C DEB","OBJECT_ID":"1999-025ST","EPOCH":"2026-02-01T02:19:12.440928","MEAN_MOTION":14.20227348,"ECCENTRICITY":0.00182404,"INCLINATION":98.7534,"RA_OF_ASC_NODE":89.8393,"ARG_OF_PERICENTER":354.5475,"MEAN_ANOMALY":26.0824,"EPHEMERIS_TYPE":0,"CLASSIFICATION_TYPE":"U","NORAD_CAT_ID":30138,"ELEMENT_SET_NO":999,"REV_AT_EPOCH":98116,"BSTAR":0.00070523853,"MEAN_MOTION_DOT":1.465e-5,"MEAN_MOTION_DDOT":0},{"OBJECT_NAME":"FENGYUN 1C DEB","OBJECT_ID":"1999-025SU","EPOCH":"2026-02-01T19:23:37.119264","MEAN_MOTION":14.03895935,"ECCENTRICITY":0.01307842,"INCLINATION":98.3656,"RA_OF_ASC_NODE":237.3662,"ARG_OF_PERICENTER":145.4174,"MEAN_ANOMALY":344.93,"EPHEMERIS_TYPE":0,"CLASSIFICATION_TYPE":"U","NORAD_CAT_ID":30139,"ELEMENT_SET_NO":999,"REV_AT_EPOCH":96966,"BSTAR":0.0012453834,"MEAN_MOTION_DOT":2.082e-5,"MEAN_MOTION_DDOT":0},{"OBJECT_NAME":"FENGYUN 1C DEB","OBJECT_ID":"1999-025SV","EPOCH":"2026-01-31T15:19:10.570656","MEAN_MOTION":14.21112297,"ECCENTRICITY":0.00433926,"INCLINATION":98.8215,"RA_OF_ASC_NODE":99.4424,"ARG_OF_PERICENTER":167.83,"MEAN_ANOMALY":348.1289,"EPHEMERIS_TYPE":0,"CLASSIFICATION_TYPE":"U","NORAD_CAT_ID":30140,"ELEMENT_SET_NO":999,"REV_AT_EPOCH":97852,"BSTAR":0.0013779279,"MEAN_MOTION_DOT":2.978e-5,"MEAN_MOTION_DDOT":0},{"OBJECT_NAME":"FENGYUN 1C DEB","OBJECT_ID":"1999-025SW","EPOCH":"2026-02-01T10:50:25.463040","MEAN_MOTION":14.52983925,"ECCENTRICITY":0.00144629,"INCLINATION":99.016,"RA_OF_ASC_NODE":322.9314,"ARG_OF_PERICENTER":251.8162,"MEAN_ANOMALY":108.1458,"EPHEMERIS_TYPE":0,"CLASSIFICATION_TYPE":"U","NORAD_CAT_ID":30141,"ELEMENT_SET_NO":999,"REV_AT_EPOCH":98980,"BSTAR":0.0021349291,"MEAN_MOTION_DOT":8.777e-5,"MEAN_MOTION_DDOT":0},{"OBJECT_NAME":"FENGYUN 1C DEB","OBJECT_ID":"1999-025SX","EPOCH":"2026-02-01T18:25:36.885792","MEAN_MOTION":14.10905081,"ECCENTRICITY":0.01042841,"INCLINATION":99.124,"RA_OF_ASC_NODE":114.337,"ARG_OF_PERICENTER":166.2184,"MEAN_ANOMALY":194.1871,"EPHEMERIS_TYPE":0,"CLASSIFICATION_TYPE":"U","NORAD_CAT_ID":30142,"ELEMENT_SET_NO":999,"REV_AT_EPOCH":97018,"BSTAR":0.0014186779,"MEAN_MOTION_DOT":2.633e-5,"MEAN_MOTION_DDOT":0},{"OBJECT_NAME":"FENGYUN 1C DEB","OBJECT_ID":"1999-025SY","EPOCH":"2026-02-01T23:05:01.463136","MEAN_MOTION":14.02833184,"ECCENTRICITY":0.01034175,"INCLINATION":98.7369,"RA_OF_ASC_NODE":219.1867,"ARG_OF_PERICENTER":147.8968,"MEAN_ANOMALY":16.6831,"EPHEMERIS_TYPE":0,"CLASSIFICATION_TYPE":"U","NORAD_CAT_ID":30143,"ELEMENT_SET_NO":999,"REV_AT_EPOCH":96937,"BSTAR":0.0012091423,"MEAN_MOTION_DOT":1.921e-5,"MEAN_MOTION_DDOT":0},{"OBJECT_NAME":"FENGYUN 1C DEB","OBJECT_ID":"1999-025SZ","EPOCH":"2026-02-01T23:16:17.728032","MEAN_MOTION":13.91893604,"ECCENTRICITY":0.01266178,"INCLINATION":99.0139,"RA_OF_ASC_NODE":29.3086,"ARG_OF_PERICENTER":150.6081,"MEAN_ANOMALY":267.3356,"EPHEMERIS_TYPE":0,"CLASSIFICATION_TYPE":"U","NORAD_CAT_ID":30144,"ELEMENT_SET_NO":999,"REV_AT_EPOCH":96553,"BSTAR":0.00032664703,"MEAN_MOTION_DOT":4.02e-6,"MEAN_MOTION_DDOT":0},{"OBJECT_NAME":"FENGYUN 1C DEB","OBJECT_ID":"1999-025TA","EPOCH":"2026-02-01T22:22:54.173280","MEAN_MOTION":14.14638631,"ECCENTRICITY":0.00855571,"INCLINATION":99.2676,"RA_OF_ASC_NODE":149.4289,"ARG_OF_PERICENTER":3.4192,"MEAN_ANOMALY":120.4281,"EPHEMERIS_TYPE":0,"CLASSIFICATION_TYPE":"U","NORAD_CAT_ID":30145,"ELEMENT_SET_NO":999,"REV_AT_EPOCH":96919,"BSTAR":0.0016996926,"MEAN_MOTION_DOT":3.338e-5,"MEAN_MOTION_DDOT":0},{"OBJECT_NAME":"FENGYUN 1C DEB","OBJECT_ID":"1999-025TB","EPOCH":"2026-02-01T22:48:55.192320","MEAN_MOTION":13.86684362,"ECCENTRICITY":0.01770874,"INCLINATION":98.0237,"RA_OF_ASC_NODE":190.3404,"ARG_OF_PERICENTER":340.6523,"MEAN_ANOMALY":140.1873,"EPHEMERIS_TYPE":0,"CLASSIFICATION_TYPE":"U","NORAD_CAT_ID":30146,"ELEMENT_SET_NO":999,"REV_AT_EPOCH":96127,"BSTAR":0.00049415185,"MEAN_MOTION_DOT":6.15e-6,"MEAN_MOTION_DDOT":0},{"OBJECT_NAME":"FENGYUN 1C DEB","OBJECT_ID":"1999-025TD","EPOCH":"2026-02-01T21:10:47.204256","MEAN_MOTION":13.88609049,"ECCENTRICITY":0.01339014,"INCLINATION":99.549,"RA_OF_ASC_NODE":188.4004,"ARG_OF_PERICENTER":60.8407,"MEAN_ANOMALY":102.4578,"EPHEMERIS_TYPE":0,"CLASSIFICATION_TYPE":"U","NORAD_CAT_ID":30148,"ELEMENT_SET_NO":999,"REV_AT_EPOCH":96226,"BSTAR":0.00060261122,"MEAN_MOTION_DOT":7.33e-6,"MEAN_MOTION_DDOT":0},{"OBJECT_NAME":"FENGYUN 1C DEB","OBJECT_ID":"1999-025TF","EPOCH":"2026-02-01T20:29:42.178560","MEAN_MOTION":13.86687476,"ECCENTRICITY":0.01478296,"INCLINATION":98.9973,"RA_OF_ASC_NODE":171.9098,"ARG_OF_PERICENTER":197.645,"MEAN_ANOMALY":325.9014,"EPHEMERIS_TYPE":0,"CLASSIFICATION_TYPE":"U","NORAD_CAT_ID":30150,"ELEMENT_SET_NO":999,"REV_AT_EPOCH":96166,"BSTAR":0.00068632806,"MEAN_MOTION_DOT":8.28e-6,"MEAN_MOTION_DDOT":0},{"OBJECT_NAME":"FENGYUN 1C DEB","OBJECT_ID":"1999-025TG","EPOCH":"2026-02-01T12:44:17.717568","MEAN_MOTION":13.84560598,"ECCENTRICITY":0.01641463,"INCLINATION":99.0628,"RA_OF_ASC_NODE":43.7605,"ARG_OF_PERICENTER":142.0668,"MEAN_ANOMALY":343.6056,"EPHEMERIS_TYPE":0,"CLASSIFICATION_TYPE":"U","NORAD_CAT_ID":30151,"ELEMENT_SET_NO":999,"REV_AT_EPOCH":95948,"BSTAR":0.00065151246,"MEAN_MOTION_DOT":7.7e-6,"MEAN_MOTION_DDOT":0},{"OBJECT_NAME":"FENGYUN 1C DEB","OBJECT_ID":"1999-025TH","EPOCH":"2026-02-01T14:31:01.831584","MEAN_MOTION":13.97076102,"ECCENTRICITY":0.01631101,"INCLINATION":99.0827,"RA_OF_ASC_NODE":254.7494,"ARG_OF_PERICENTER":306.8372,"MEAN_ANOMALY":51.7925,"EPHEMERIS_TYPE":0,"CLASSIFICATION_TYPE":"U","NORAD_CAT_ID":30152,"ELEMENT_SET_NO":999,"REV_AT_EPOCH":96088,"BSTAR":0.0017855293,"MEAN_MOTION_DOT":2.745e-5,"MEAN_MOTION_DDOT":0},{"OBJECT_NAME":"FENGYUN 1C DEB","OBJECT_ID":"1999-025TJ","EPOCH":"2026-02-01T13:40:14.887200","MEAN_MOTION":13.7893983,"ECCENTRICITY":0.01995861,"INCLINATION":100.4706,"RA_OF_ASC_NODE":33.2238,"ARG_OF_PERICENTER":236.3204,"MEAN_ANOMALY":254.0609,"EPHEMERIS_TYPE":0,"CLASSIFICATION_TYPE":"U","NORAD_CAT_ID":30153,"ELEMENT_SET_NO":999,"REV_AT_EPOCH":95475,"BSTAR":0.00089397063,"MEAN_MOTION_DOT":1.004e-5,"MEAN_MOTION_DDOT":0},{"OBJECT_NAME":"FENGYUN 1C DEB","OBJECT_ID":"1999-025TK","EPOCH":"2026-02-01T16:29:47.731200","MEAN_MOTION":13.86210398,"ECCENTRICITY":0.01805234,"INCLINATION":98.4461,"RA_OF_ASC_NODE":74.5392,"ARG_OF_PERICENTER":59.6522,"MEAN_ANOMALY":61.5153,"EPHEMERIS_TYPE":0,"CLASSIFICATION_TYPE":"U","NORAD_CAT_ID":30154,"ELEMENT_SET_NO":999,"REV_AT_EPOCH":95690,"BSTAR":0.0011965083,"MEAN_MOTION_DOT":1.533e-5,"MEAN_MOTION_DDOT":0},{"OBJECT_NAME":"FENGYUN 1C DEB","OBJECT_ID":"1999-025TL","EPOCH":"2026-02-01T18:37:57.621504","MEAN_MOTION":13.74116535,"ECCENTRICITY":0.02486556,"INCLINATION":99.7498,"RA_OF_ASC_NODE":112.362,"ARG_OF_PERICENTER":212.2687,"MEAN_ANOMALY":146.304,"EPHEMERIS_TYPE":0,"CLASSIFICATION_TYPE":"U","NORAD_CAT_ID":30155,"ELEMENT_SET_NO":999,"REV_AT_EPOCH":94565,"BSTAR":0.0024355831,"MEAN_MOTION_DOT":2.818e-5,"MEAN_MOTION_DDOT":0},{"OBJECT_NAME":"FENGYUN 1C DEB","OBJECT_ID":"1999-025TM","EPOCH":"2026-02-01T20:06:52.483680","MEAN_MOTION":13.80980862,"ECCENTRICITY":0.01992746,"INCLINATION":98.9214,"RA_OF_ASC_NODE":2.0255,"ARG_OF_PERICENTER":124.8885,"MEAN_ANOMALY":266.7013,"EPHEMERIS_TYPE":0,"CLASSIFICATION_TYPE":"U","NORAD_CAT_ID":30156,"ELEMENT_SET_NO":999,"REV_AT_EPOCH":95396,"BSTAR":0.0012942257,"MEAN_MOTION_DOT":1.549e-5,"MEAN_MOTION_DDOT":0},{"OBJECT_NAME":"FENGYUN 1C DEB","OBJECT_ID":"1999-025TN","EPOCH":"2026-02-01T05:34:46.341120","MEAN_MOTION":14.45994317,"ECCENTRICITY":0.00343382,"INCLINATION":98.7118,"RA_OF_ASC_NODE":135.6102,"ARG_OF_PERICENTER":43.8127,"MEAN_ANOMALY":348.1098,"EPHEMERIS_TYPE":0,"CLASSIFICATION_TYPE":"U","NORAD_CAT_ID":30157,"ELEMENT_SET_NO":999,"REV_AT_EPOCH":98802,"BSTAR":0.001532557,"MEAN_MOTION_DOT":5.455e-5,"MEAN_MOTION_DDOT":0},{"OBJECT_NAME":"FENGYUN 1C DEB","OBJECT_ID":"1999-025TR","EPOCH":"2026-02-01T19:06:58.377600","MEAN_MOTION":13.43024771,"ECCENTRICITY":0.03444494,"INCLINATION":98.8908,"RA_OF_ASC_NODE":340.4302,"ARG_OF_PERICENTER":359.3964,"MEAN_ANOMALY":28.5021,"EPHEMERIS_TYPE":0,"CLASSIFICATION_TYPE":"U","NORAD_CAT_ID":30160,"ELEMENT_SET_NO":999,"REV_AT_EPOCH":93099,"BSTAR":0.0014728859,"MEAN_MOTION_DOT":1.158e-5,"MEAN_MOTION_DDOT":0},{"OBJECT_NAME":"FENGYUN 1C DEB","OBJECT_ID":"1999-025TS","EPOCH":"2026-02-01T22:20:30.526368","MEAN_MOTION":13.49871186,"ECCENTRICITY":0.03274549,"INCLINATION":100.5097,"RA_OF_ASC_NODE":28.1665,"ARG_OF_PERICENTER":133.9694,"MEAN_ANOMALY":285.5312,"EPHEMERIS_TYPE":0,"CLASSIFICATION_TYPE":"U","NORAD_CAT_ID":30161,"ELEMENT_SET_NO":999,"REV_AT_EPOCH":93250,"BSTAR":0.0013495641,"MEAN_MOTION_DOT":1.148e-5,"MEAN_MOTION_DDOT":0},{"OBJECT_NAME":"FENGYUN 1C DEB","OBJECT_ID":"1999-025TT","EPOCH":"2026-02-01T18:30:36.748224","MEAN_MOTION":13.53689361,"ECCENTRICITY":0.03173461,"INCLINATION":99.4846,"RA_OF_ASC_NODE":91.8042,"ARG_OF_PERICENTER":220.827,"MEAN_ANOMALY":264.9858,"EPHEMERIS_TYPE":0,"CLASSIFICATION_TYPE":"U","NORAD_CAT_ID":30162,"ELEMENT_SET_NO":999,"REV_AT_EPOCH":93351,"BSTAR":0.0026153234,"MEAN_MOTION_DOT":2.385e-5,"MEAN_MOTION_DDOT":0}]
